OBJECT_NAME,OBJECT_ID,EPOCH,MEAN_MOTION,ECCENTRICITY,INCLINATION,RA_OF_ASC_NODE,ARG_OF_PERICENTER,MEAN_ANOMALY,EPHEMERIS_TYPE,CLASSIFICATION_TYPE,NORAD_CAT_ID,ELEMENT_SET_NO,REV_AT_EPOCH,BSTAR,MEAN_MOTION_DOT,MEAN_MOTION_DDOT
STARLINK-31369,2024-031L,2026-07-13T01:29:10.825440,15.34392050,.00012868,53.1600,73.9708,91.6505,268.4645,0,U,58975,999,13571,.41817539E-4,.1036E-4,0
STARLINK-31324,2024-031M,2026-07-13T20:00:01.999008,15.33560160,.00013,53.1590,70.7985,87.3676,355.2997,0,U,58976,999,585,-.81701E-3,-.27155E-3,0
STARLINK-31358,2024-031N,2026-07-13T20:30:05.718240,15.30189221,.0001295,53.1589,70.3652,96.3293,263.7855,0,U,58977,999,13583,-.89512E-5,-.624E-5,0
STARLINK-31355,2024-031P,2026-07-13T20:57:09.518112,15.34401695,.0001298,53.1594,70.4974,105.6561,254.4585,0,U,58978,999,13583,.23386E-3,.7533E-4,0
STARLINK-31380,2024-031Q,2026-07-13T20:29:54.576960,15.34377444,.0001351,53.1621,70.3847,101.4532,258.6623,0,U,58979,999,13583,-.21206E-4,-.1092E-4,0
STARLINK-31353,2024-031R,2026-07-13T20:48:03.682656,15.34377637,.0001304,53.1619,70.4601,89.2889,270.8263,0,U,58980,999,13583,.57159E-4,.1554E-4,0
STARLINK-31339,2024-031S,2026-07-13T20:11:02.114016,15.34386354,.0001468,53.1589,68.8831,105.4679,254.6485,0,U,58981,999,13585,.14509E-4,.114E-5,0
STARLINK-31384,2024-031U,2026-07-13T20:01:56.943840,15.34383426,.0001481,53.1600,68.8408,78.0249,282.0920,0,U,58983,999,13585,-.14386E-4,-.862E-5,0
STARLINK-31379,2024-031V,2026-07-13T20:51:06.067872,15.34389455,.000121,53.1605,70.4663,87.7148,272.3993,0,U,58984,999,13583,-.26558E-4,-.1273E-4,0
STARLINK-31385,2024-031W,2026-07-13T20:52:29.296128,15.34391199,.0001546,53.1598,66.1827,103.4233,256.6942,0,U,58985,999,13589,.97699E-5,-.46E-6,0
STARLINK-31229,2024-031X,2026-07-13T20:42:01.556928,15.34378505,.0001043,53.1599,70.4347,104.9945,255.1173,0,U,58986,999,13583,-.58382E-4,-.2347E-4,0
STARLINK-31468,2024-036A,2026-07-13T11:05:36.758400,15.30196944,.00013589,53.1586,213.6481,84.2723,275.8432,0,U,58998,999,13459,.38141279E-4,.77E-5,0
STARLINK-31440,2024-036B,2026-07-13T20:32:58.538112,15.30192391,.0001165,53.1590,211.8333,81.4325,278.6808,0,U,58999,999,13383,.90459E-5,-.91E-6,0
STARLINK-31529,2024-036C,2026-07-13T13:07:46.536096,15.30197584,.0001303,53.1587,211.3366,82.3997,277.7152,0,U,59000,999,13454,.1945E-4,.217E-5,0
STARLINK-31431,2024-036E,2026-07-13T13:46:31.521216,15.30195003,.0001153,53.1591,213.6292,77.3234,282.7895,0,U,59002,999,13459,.4375E-4,.937E-5,0
STARLINK-31435,2024-036G,2026-07-13T11:10:11.591616,15.30208760,.00009292,53.1569,213.6595,99.9802,260.1304,0,U,59004,999,13459,.23575349E-3,.6631E-4,0
STARLINK-31484,2024-036H,2026-07-13T11:14:43.603872,15.30209306,.00010912,53.1584,213.6791,15.2508,344.8526,0,U,59005,999,13458,.67001093E-4,.1626E-4,0
STARLINK-31450,2024-036J,2026-07-13T11:25:21.512352,15.30202188,.00010282,53.1600,213.7239,90.5436,269.5683,0,U,59006,999,13458,.42472447E-4,.899E-5,0
STARLINK-31456,2024-036K,2026-07-13T08:11:10.622688,15.30203421,.00011739,53.1602,214.3047,91.3821,268.7315,0,U,59007,999,13456,.62060529E-4,.1479E-4,0
STARLINK-31460,2024-036L,2026-07-13T10:27:47.210112,15.30195103,.00008445,53.1591,214.1881,72.3889,287.7204,0,U,59008,999,13457,.29874568E-4,.526E-5,0
STARLINK-31488,2024-036M,2026-07-13T15:55:21.704160,15.30182193,.000097,53.1580,212.7594,134.3419,225.7661,0,U,59009,999,13461,.77752E-4,.1943E-4,0
STARLINK-31528,2024-036N,2026-07-13T10:58:10.340832,15.30197251,.00010302,53.1585,214.3185,90.9680,269.1438,0,U,59010,999,13457,.44750747E-4,.966E-5,0
STARLINK-31491,2024-036P,2026-07-13T10:59:42.575424,15.30207691,.0001312,53.1572,214.3207,80.9353,279.1796,0,U,59011,999,13457,.17750464E-3,.4903E-4,0
STARLINK-31465,2024-036Q,2026-07-13T12:26:08.861568,15.30192380,.0001071,53.1584,213.9820,98.5492,261.5630,0,U,59012,999,13458,.38473E-4,.78E-5,0
STARLINK-31389,2024-036R,2026-07-13T10:49:18.934176,15.31700501,.00013047,53.1592,214.2780,63.8002,296.3133,0,U,59013,999,13458,.10052562E-4,-.53E-6,0
STARLINK-31454,2024-036S,2026-07-13T09:13:29.111808,15.30197605,.00009168,53.1591,214.5702,72.8523,287.2578,0,U,59014,999,13456,.1244239E-4,.1E-6,0
STARLINK-31521,2024-036T,2026-07-13T09:11:55.605408,15.30227795,.00022315,53.1575,214.5661,67.2100,292.9137,0,U,59015,999,13456,.19324501E-3,.5373E-4,0
STARLINK-31526,2024-036U,2026-07-13T10:39:22.801824,15.31702927,.00010329,53.1580,187.9115,73.0979,287.0135,0,U,59016,999,13494,.30445698E-4,.58E-5,0
STARLINK-31406,2024-036V,2026-07-13T19:45:06.164064,15.34389973,.0001421,53.1586,196.7236,86.8349,273.2817,0,U,59017,999,13485,-.33634E-4,-.1512E-4,0
STARLINK-31527,2024-036W,2026-07-13T20:00:01.999008,15.33482838,.0001154,53.1581,212.3615,38.2889,343.0619,0,U,59018,999,591,.14737E-2,.48306E-3,0
