STARLINK-31369          
1 58975U 24031L   26194.06193085  .00001036  00000+0  41818-4 0  9993
2 58975  53.1600  73.9708 0001286  91.6505 268.4645 15.34392050135712
STARLINK-31324          
1 58976U 24031M   26194.83335647 -.00027155  00000+0 -81701-3 0  9997
2 58976  53.1590  70.7985 0001300  87.3676 355.2997 15.33560160  5855
STARLINK-31358          
1 58977U 24031N   26194.85423285 -.00000624  00000+0 -89512-5 0  9998
2 58977  53.1589  70.3652 0001295  96.3293 263.7855 15.30189221135839
STARLINK-31355          
1 58978U 24031P   26194.87302683  .00007533  00000+0  23386-3 0  9998
2 58978  53.1594  70.4974 0001298 105.6561 254.4585 15.34401695135832
STARLINK-31380          
1 58979U 24031Q   26194.85410390 -.00001092  00000+0 -21206-4 0  9998
2 58979  53.1621  70.3847 0001351 101.4532 258.6623 15.34377444135837
STARLINK-31353          
1 58980U 24031R   26194.86670929  .00001554  00000+0  57159-4 0  9994
2 58980  53.1619  70.4601 0001304  89.2889 270.8263 15.34377637135831
STARLINK-31339          
1 58981U 24031S   26194.84099669  .00000114  00000+0  14509-4 0  9992
2 58981  53.1589  68.8831 0001468 105.4679 254.6485 15.34386354135857
STARLINK-31384          
1 58983U 24031U   26194.83468685 -.00000862  00000+0 -14386-4 0  9996
2 58983  53.1600  68.8408 0001481  78.0249 282.0920 15.34383426135852
STARLINK-31379          
1 58984U 24031V   26194.86882023 -.00001273  00000+0 -26558-4 0  9997
2 58984  53.1605  70.4663 0001210  87.7148 272.3993 15.34389455135833
STARLINK-31385          
1 58985U 24031W   26194.86978352 -.00000046  00000+0  97699-5 0  9990
2 58985  53.1598  66.1827 0001546 103.4233 256.6942 15.34391199135895
STARLINK-31229          
1 58986U 24031X   26194.86251802 -.00002347  00000+0 -58382-4 0  9997
2 58986  53.1599  70.4347 0001043 104.9945 255.1173 15.34378505135830
STARLINK-31468          
1 58998U 24036A   26194.46223100  .00000770  00000+0  38141-4 0  9998
2 58998  53.1586 213.6481 0001358  84.2723 275.8432 15.30196944134592
STARLINK-31440          
1 58999U 24036B   26194.85623308 -.00000091  00000+0  90459-5 0  9994
2 58999  53.1590 211.8333 0001165  81.4325 278.6808 15.30192391133833
STARLINK-31529          
1 59000U 24036C   26194.54706639  .00000217  00000+0  19450-4 0  9993
2 59000  53.1587 211.3366 0001303  82.3997 277.7152 15.30197584134543
STARLINK-31431          
1 59002U 24036E   26194.57397594  .00000937  00000+0  43750-4 0  9993
2 59002  53.1591 213.6292 0001153  77.3234 282.7895 15.30195003134593
STARLINK-31435          
1 59004U 24036G   26194.46541194  .00006631  00000+0  23575-3 0  9999
2 59004  53.1569 213.6595 0000929  99.9802 260.1304 15.30208760134597
STARLINK-31484          
1 59005U 24036H   26194.46856023  .00001626  00000+0  67001-4 0  9992
2 59005  53.1584 213.6791 0001091  15.2508 344.8526 15.30209306134580
STARLINK-31450          
1 59006U 24036J   26194.47594343  .00000899  00000+0  42472-4 0  9994
2 59006  53.1600 213.7239 0001028  90.5436 269.5683 15.30202188134582
STARLINK-31456          
1 59007U 24036K   26194.34109517  .00001479  00000+0  62061-4 0  9997
2 59007  53.1602 214.3047 0001173  91.3821 268.7315 15.30203421134569
STARLINK-31460          
1 59008U 24036L   26194.43596308  .00000526  00000+0  29875-4 0  9994
2 59008  53.1591 214.1881 0000844  72.3889 287.7204 15.30195103134574
STARLINK-31488          
1 59009U 24036M   26194.66344565  .00001943  00000+0  77752-4 0  9997
2 59009  53.1580 212.7594 0000970 134.3419 225.7661 15.30182193134615
STARLINK-31528          
1 59010U 24036N   26194.45706413  .00000966  00000+0  44751-4 0  9997
2 59010  53.1585 214.3185 0001030  90.9680 269.1438 15.30197251134571
STARLINK-31491          
1 59011U 24036P   26194.45813166  .00004903  00000+0  17750-3 0  9995
2 59011  53.1572 214.3207 0001312  80.9353 279.1796 15.30207691134570
STARLINK-31465          
1 59012U 24036Q   26194.51815812  .00000780  00000+0  38473-4 0  9998
2 59012  53.1584 213.9820 0001071  98.5492 261.5630 15.30192380134582
STARLINK-31389          
1 59013U 24036R   26194.45091359 -.00000053  00000+0  10053-4 0  9992
2 59013  53.1592 214.2780 0001304  63.8002 296.3133 15.31700501134587
STARLINK-31454          
1 59014U 24036S   26194.38436472  .00000010  00000+0  12442-4 0  9990
2 59014  53.1591 214.5702 0000916  72.8523 287.2578 15.30197605134564
STARLINK-31521          
1 59015U 24036T   26194.38328247  .00005373  00000+0  19325-3 0  9994
2 59015  53.1575 214.5661 0002231  67.2100 292.9137 15.30227795134560
STARLINK-31526          
1 59016U 24036U   26194.44401391  .00000580  00000+0  30446-4 0  9997
2 59016  53.1580 187.9115 0001032  73.0979 287.0135 15.31702927134942
STARLINK-31406          
1 59017U 24036V   26194.82298801 -.00001512  00000+0 -33634-4 0  9990
2 59017  53.1586 196.7236 0001421  86.8349 273.2817 15.34389973134855
STARLINK-31527          
1 59018U 24036W   26194.83335647  .00048306  00000+0  14737-2 0  9993
2 59018  53.1581 212.3615 0001154  38.2889 343.0619 15.33482838  5913
